IRIDIUM 171             
1 43929U 19002H   26007.69373868 -.00000004  00000+0 -83635-5 0  9999
2 43929  86.3951  60.9519 0002264  90.7449 269.4006 14.34217405365954
IRIDIUM 170             
1 43930U 19002J   26007.62545633  .00000987  00000+0  15269-3 0  9999
2 43930  86.6065  60.6866 0002378  88.2214 271.9276 14.72249494375633
IRIDIUM 167             
1 43931U 19002K   26007.68739655  .00000198  00000+0  63642-4 0  9998
2 43931  86.3942  60.6872 0002568  90.1251 270.0239 14.34217504365954
IRIDIUM 181             
1 56726U 23068S   26007.81689017  .00000639  00000+0  18397-3 0  9998
2 56726  86.4530 123.8378 0001743  87.5742 272.5658 14.43305975139306
IRIDIUM 177             
1 56727U 23068T   26007.83635727  .00001401  00000+0  18093-3 0  9991
2 56727  86.1942  44.9317 0002263  89.4721 270.6759 14.80235402142643
IRIDIUM 174             
1 56728U 23068U   26007.68105481  .00000870  00000+0  13413-3 0  9994
2 56728  86.6073  60.7948 0002165  92.9429 267.2036 14.72256819142405
IRIDIUM 178             
1 56729U 23068V   26007.75790655  .00001612  00000+0  20883-3 0  9990
2 56729  86.6533  92.4293 0002476  84.1169 276.0335 14.80217989142630
IRIDIUM 179             
1 56730U 23068W   26007.75249315  .00000960  00000+0  12292-3 0  9994
2 56730  86.6786 100.9362 0002296  92.7286 267.4199 14.80232259142638
